GPS BIIR-2  (PRN 13)    
1 24876U 97035A   24189.22068968 -.00000017  00000+0  00000+0 0  9993
2 24876  55.6762 126.3494 0080866  52.4854 308.2153  2.00565617197714
GPS BIIR-4  (PRN 20)    
1 26360U 00025A   24189.61422519 -.00000077  00000+0  00000+0 0  9991
2 26360  54.6830  48.0485 0038044 214.7628 154.4560  2.00577406177048
GPS BIIR-5  (PRN 22)    
1 26407U 00040A   24189.42720111  .00000022  00000+0  00000+0 0  9997
2 26407  55.0583 243.3792 0144634 294.7403 141.9869  2.00560616175713
GPS BIIR-8  (PRN 16)    
1 27663U 03005A   24189.14616833  .00000025  00000+0  00000+0 0  9993
2 27663  55.0972 243.2015 0136368  47.4080 323.1818  2.00573724157077
GPS BIIR-9  (PRN 21)    
1 27704U 03010A   24189.32633041 -.00000108  00000+0  00000+0 0  9998
2 27704  55.0957 352.9781 0253214 328.0823  30.3349  2.00563797155867
GPS BIIR-11 (PRN 19)    
1 28190U 04009A   24189.50014565 -.00000072  00000+0  00000+0 0  9991
2 28190  55.4363 304.2292 0098338 149.2664 275.1084  2.00558792148719
GPS BIIR-13 (PRN 02)    
1 28474U 04045A   24190.09387139 -.00000106  00000+0  00000+0 0  9990
2 28474  55.4241 353.3733 0161847 292.9697 245.6258  2.00561498144192
GPS BIIRM-1 (PRN 17)    
1 28874U 05038A   24189.43238241 -.00000069  00000+0  00000+0 0  9990
2 28874  55.4822 301.6941 0136374 284.2483 114.9174  2.00554076137609
GPS BIIRM-2 (PRN 31)    
1 29486U 06042A   24189.26029102  .00000030  00000+0  00000+0 0  9998
2 29486  54.6797 179.4912 0103519  38.5601 137.0278  2.00554636130153
GPS BIIRM-3 (PRN 12)    
1 29601U 06052A   24188.94309752  .00000028  00000+0  00000+0 0  9991
2 29601  55.1280 242.1886 0084583  83.3001 277.7488  2.00568958129160
GPS BIIRM-4 (PRN 15)    
1 32260U 07047A   24189.24519780 -.00000033  00000+0  00000+0 0  9996
2 32260  53.6165 109.4192 0156069  75.7147 286.0068  2.00563007122575
GPS BIIRM-5 (PRN 29)    
1 32384U 07062A   24189.80450043 -.00000070  00000+0  00000+0 0  9999
2 32384  55.6219 302.5446 0028881 153.1075  19.8245  2.00576066121345
GPS BIIRM-6 (PRN 07)    
1 32711U 08012A   24190.16114556  .00000032  00000+0  00000+0 0  9993
2 32711  54.4528 178.2134 0188598 239.3788 118.7312  2.00568780119537
GPS BIIRM-8 (PRN 05)    
1 35752U 09043A   24189.41753766 -.00000069  00000+0  00000+0 0  9995
2 35752  55.6899  55.4783 0057139  72.7867 126.0817  2.00568051109125
GPS BIIF-1  (PRN 25)    
1 36585U 10022A   24189.54101194  .00000026  00000+0  00000+0 0  9997
2 36585  54.4389 237.1780 0114039  61.9655 346.3602  2.00552423103360
GPS BIIF-3  (PRN 24)    
1 38833U 12053A   24189.34237431  .00000023  00000+0  00000+0 0  9990
2 38833  53.5191 172.6457 0152757  56.0257 305.3892  2.00559003 85204
GPS BIIF-4  (PRN 27)    
1 39166U 13023A   24189.20521929 -.00000063  00000+0  00000+0 0  9996
2 39166  55.0948 297.7759 0123798  45.0099 316.0097  2.00562775 81640
GPS BIIF-5  (PRN 30)    
1 39533U 14008A   24189.20517607  .00000028  00000+0  00000+0 0  9996
2 39533  53.6017 178.2515 0073372 220.9974 138.4331  2.00569684 75444
GPS BIIF-6  (PRN 06)    
1 39741U 14026A   24188.98419443 -.00000105  00000+0  00000+0 0  9997
2 39741  56.7097 359.1006 0030889 316.3519  43.4109  2.00567026 74291
GPS BIIF-7  (PRN 09)    
1 40105U 14045A   24189.07738401 -.00000027  00000+0  00000+0 0  9996
2 40105  54.9387 116.8140 0026246 114.8315 245.4248  2.00567763 71836
GPS BIIF-8  (PRN 03)    
1 40294U 14068A   24188.95072074 -.00000065  00000+0  00000+0 0  9995
2 40294  56.4374  58.4689 0054477  62.9459 297.6762  2.00561139 70960
GPS BIIF-9  (PRN 26)    
1 40534U 15013A   24189.08119651  .00000031  00000+0  00000+0 0  9993
2 40534  53.3373 233.5729 0088093  29.7608 330.8203  2.00564362 67586
GPS BIIF-10 (PRN 08)    
1 40730U 15033A   24189.24302584 -.00000062  00000+0  00000+0 0  9995
2 40730  54.5780 296.2377 0094078  19.7804 340.6086  2.00566035 65755
GPS BIIF-11 (PRN 10)    
1 41019U 15062A   24188.80383966 -.00000065  00000+0  00000+0 0  9995
2 41019  56.4175  58.3279 0095543 224.8035 134.4851  2.00562548 63589
GPS BIIF-12 (PRN 32)    
1 41328U 16007A   24188.38563499 -.00000033  00000+0  00000+0 0  9997
2 41328  55.1332 117.6882 0079879 238.9231 120.2702  2.00561008 61586
GPS BIII-1  (PRN 04)    
1 43873U 18109A   24189.27324795 -.00000022  00000+0  00000+0 0  9990
2 43873  55.3041 120.2343 0029190 194.6145 337.4519  2.00557033 40833
GPS BIII-2  (PRN 18)    
1 44506U 19056A   24188.44926917 -.00000106  00000+0  00000+0 0  9991
2 44506  55.8410 359.3217 0043526 188.4916  11.2317  2.00572143 35817
GPS BIII-3  (PRN 23)    
1 45854U 20041A   24189.50466013 -.00000067  00000+0  00000+0 0  9994
2 45854  56.1398  56.6283 0044029 192.9568 343.6698  2.00573448 29800
GPS BIII-4  (PRN 14)    
1 46826U 20078A   24189.35373362  .00000025  00000+0  00000+0 0  9994
2 46826  54.1731 239.5888 0047424 197.6925 208.2027  2.00560277 27270
GPS BIII-5  (PRN 11)    
1 48859U 21054A   24189.54546660 -.00000106  00000+0  00000+0 0  9992
2 48859  55.3664   0.9204 0015680 218.3334 150.4264  2.00557042 22511
GPS BIII-6  (PRN 28)    
1 55268U 23009A   24188.72607678  .00000029  00000+0  00000+0 0  9995
2 55268  55.0883 176.4011 0000687  83.2911  96.7786  2.00563085 10993
